[{"OBJECT_NAME":"SUPERVIEW NEO-2 OBJECT A","OBJECT_ID":"2026-062A","EPOCH":"2026-04-18T07:09:48.583008","MEAN_MOTION":15.19749843,"ECCENTRICITY":0.00014597,"INCLINATION":97.4403,"RA_OF_ASC_NODE":116.4623,"ARG_OF_PERICENTER":108.2182,"MEAN_ANOMALY":251.9212,"EPHEMERIS_TYPE":0,"CLASSIFICATION_TYPE":"U","NORAD_CAT_ID":68377,"ELEMENT_SET_NO":999,"REV_AT_EPOCH":355,"BSTAR":8.6292718e-5,"MEAN_MOTION_DOT":1.777e-5,"MEAN_MOTION_DDOT":0},{"OBJECT_NAME":"SUPERVIEW NEO-2 OBJECT B","OBJECT_ID":"2026-062B","EPOCH":"2026-04-18T07:09:48.798144","MEAN_MOTION":15.1972553,"ECCENTRICITY":0.00017216,"INCLINATION":97.4403,"RA_OF_ASC_NODE":116.4568,"ARG_OF_PERICENTER":86.646,"MEAN_ANOMALY":273.4972,"EPHEMERIS_TYPE":0,"CLASSIFICATION_TYPE":"U","NORAD_CAT_ID":68378,"ELEMENT_SET_NO":999,"REV_AT_EPOCH":355,"BSTAR":8.7682515e-5,"MEAN_MOTION_DOT":1.805e-5,"MEAN_MOTION_DDOT":0},{"OBJECT_NAME":"STARLINK-36296","OBJECT_ID":"2026-063A","EPOCH":"2026-04-18T06:00:02.999808","MEAN_MOTION":15.75168712,"ECCENTRICITY":0.00013957,"INCLINATION":97.286,"RA_OF_ASC_NODE":250.1461,"ARG_OF_PERICENTER":82.7808,"MEAN_ANOMALY":125.8906,"EPHEMERIS_TYPE":0,"CLASSIFICATION_TYPE":"U","NORAD_CAT_ID":68380,"ELEMENT_SET_NO":999,"REV_AT_EPOCH":201,"BSTAR":0.000140347,"MEAN_MOTION_DOT":0.00020836,"MEAN_MOTION_DDOT":0},{"OBJECT_NAME":"STARLINK-37111","OBJECT_ID":"2026-063B","EPOCH":"2026-04-18T06:00:02.999808","MEAN_MOTION":15.75162162,"ECCENTRICITY":0.00014215,"INCLINATION":97.2857,"RA_OF_ASC_NODE":249.98,"ARG_OF_PERICENTER":84.0946,"MEAN_ANOMALY":104.6155,"EPHEMERIS_TYPE":0,"CLASSIFICATION_TYPE":"U","NORAD_CAT_ID":68381,"ELEMENT_SET_NO":999,"REV_AT_EPOCH":482,"BSTAR":0.00023262835,"MEAN_MOTION_DOT":0.00034667,"MEAN_MOTION_DDOT":0},{"OBJECT_NAME":"STARLINK-36946","OBJECT_ID":"2026-063C","EPOCH":"2026-04-17T22:54:32.406336","MEAN_MOTION":15.8086769,"ECCENTRICITY":0.00014348,"INCLINATION":97.285,"RA_OF_ASC_NODE":249.6875,"ARG_OF_PERICENTER":75.175,"MEAN_ANOMALY":284.9677,"EPHEMERIS_TYPE":0,"CLASSIFICATION_TYPE":"U","NORAD_CAT_ID":68382,"ELEMENT_SET_NO":999,"REV_AT_EPOCH":382,"BSTAR":0.00082248224,"MEAN_MOTION_DOT":0.00160717,"MEAN_MOTION_DDOT":0},{"OBJECT_NAME":"STARLINK-37121","OBJECT_ID":"2026-063D","EPOCH":"2026-04-18T00:00:04.000320","MEAN_MOTION":15.75252071,"ECCENTRICITY":0.00012635,"INCLINATION":97.2858,"RA_OF_ASC_NODE":249.7065,"ARG_OF_PERICENTER":84.1834,"MEAN_ANOMALY":103.8642,"EPHEMERIS_TYPE":0,"CLASSIFICATION_TYPE":"U","NORAD_CAT_ID":68383,"ELEMENT_SET_NO":999,"REV_AT_EPOCH":478,"BSTAR":-0.0011266034,"MEAN_MOTION_DOT":-0.00165403,"MEAN_MOTION_DDOT":0},{"OBJECT_NAME":"STARLINK-37137","OBJECT_ID":"2026-063E","EPOCH":"2026-04-17T22:09:47.942784","MEAN_MOTION":15.75220922,"ECCENTRICITY":0.00014596,"INCLINATION":97.2845,"RA_OF_ASC_NODE":249.5766,"ARG_OF_PERICENTER":82.933,"MEAN_ANOMALY":277.2101,"EPHEMERIS_TYPE":0,"CLASSIFICATION_TYPE":"U","NORAD_CAT_ID":68384,"ELEMENT_SET_NO":999,"REV_AT_EPOCH":381,"BSTAR":0.00072056825,"MEAN_MOTION_DOT":0.00108874,"MEAN_MOTION_DDOT":0},{"OBJECT_NAME":"STARLINK-37128","OBJECT_ID":"2026-063F","EPOCH":"2026-04-17T22:51:17.940672","MEAN_MOTION":15.80862037,"ECCENTRICITY":0.00024941,"INCLINATION":97.2851,"RA_OF_ASC_NODE":249.6918,"ARG_OF_PERICENTER":45.8986,"MEAN_ANOMALY":314.2487,"EPHEMERIS_TYPE":0,"CLASSIFICATION_TYPE":"U","NORAD_CAT_ID":68385,"ELEMENT_SET_NO":999,"REV_AT_EPOCH":382,"BSTAR":0.00086479818,"MEAN_MOTION_DOT":0.00169127,"MEAN_MOTION_DDOT":0},{"OBJECT_NAME":"STARLINK-37198","OBJECT_ID":"2026-063G","EPOCH":"2026-04-17T21:46:55.960896","MEAN_MOTION":15.75212949,"ECCENTRICITY":0.00015391,"INCLINATION":97.2847,"RA_OF_ASC_NODE":249.5988,"ARG_OF_PERICENTER":79.1313,"MEAN_ANOMALY":281.0126,"EPHEMERIS_TYPE":0,"CLASSIFICATION_TYPE":"U","NORAD_CAT_ID":68386,"ELEMENT_SET_NO":999,"REV_AT_EPOCH":381,"BSTAR":0.00063104586,"MEAN_MOTION_DOT":0.00095145,"MEAN_MOTION_DDOT":0},{"OBJECT_NAME":"STARLINK-37223","OBJECT_ID":"2026-063H","EPOCH":"2026-04-17T22:49:07.758336","MEAN_MOTION":15.80857067,"ECCENTRICITY":0.00017317,"INCLINATION":97.2852,"RA_OF_ASC_NODE":249.693,"ARG_OF_PERICENTER":62.1802,"MEAN_ANOMALY":297.9641,"EPHEMERIS_TYPE":0,"CLASSIFICATION_TYPE":"U","NORAD_CAT_ID":68387,"ELEMENT_SET_NO":999,"REV_AT_EPOCH":382,"BSTAR":0.00073435074,"MEAN_MOTION_DOT":0.00143123,"MEAN_MOTION_DDOT":0},{"OBJECT_NAME":"STARLINK-37203","OBJECT_ID":"2026-063J","EPOCH":"2026-04-17T22:48:02.852064","MEAN_MOTION":15.80840824,"ECCENTRICITY":0.00015454,"INCLINATION":97.2853,"RA_OF_ASC_NODE":249.6942,"ARG_OF_PERICENTER":71.8991,"MEAN_ANOMALY":288.2446,"EPHEMERIS_TYPE":0,"CLASSIFICATION_TYPE":"U","NORAD_CAT_ID":68388,"ELEMENT_SET_NO":999,"REV_AT_EPOCH":382,"BSTAR":0.00041392122,"MEAN_MOTION_DOT":0.00079965,"MEAN_MOTION_DDOT":0},{"OBJECT_NAME":"STARLINK-37197","OBJECT_ID":"2026-063K","EPOCH":"2026-04-17T22:00:39.091968","MEAN_MOTION":15.75213715,"ECCENTRICITY":0.00014407,"INCLINATION":97.2846,"RA_OF_ASC_NODE":249.5852,"ARG_OF_PERICENTER":90.2664,"MEAN_ANOMALY":269.8766,"EPHEMERIS_TYPE":0,"CLASSIFICATION_TYPE":"U","NORAD_CAT_ID":68389,"ELEMENT_SET_NO":999,"REV_AT_EPOCH":381,"BSTAR":0.00063403502,"MEAN_MOTION_DOT":0.00095604,"MEAN_MOTION_DDOT":0},{"OBJECT_NAME":"STARLINK-37193","OBJECT_ID":"2026-063L","EPOCH":"2026-04-18T06:00:02.999808","MEAN_MOTION":15.75168495,"ECCENTRICITY":0.00012874,"INCLINATION":97.2856,"RA_OF_ASC_NODE":250.2213,"ARG_OF_PERICENTER":80.1802,"MEAN_ANOMALY":320.478,"EPHEMERIS_TYPE":0,"CLASSIFICATION_TYPE":"U","NORAD_CAT_ID":68390,"ELEMENT_SET_NO":999,"REV_AT_EPOCH":315,"BSTAR":0.00012593827,"MEAN_MOTION_DOT":0.00018678,"MEAN_MOTION_DDOT":0},{"OBJECT_NAME":"STARLINK-37216","OBJECT_ID":"2026-063M","EPOCH":"2026-04-18T06:00:02.999808","MEAN_MOTION":15.75168432,"ECCENTRICITY":0.00013354,"INCLINATION":97.2858,"RA_OF_ASC_NODE":249.9987,"ARG_OF_PERICENTER":87.2352,"MEAN_ANOMALY":145.4725,"EPHEMERIS_TYPE":0,"CLASSIFICATION_TYPE":"U","NORAD_CAT_ID":68391,"ELEMENT_SET_NO":999,"REV_AT_EPOCH":482,"BSTAR":0.00012777247,"MEAN_MOTION_DOT":0.00018953,"MEAN_MOTION_DDOT":0},{"OBJECT_NAME":"STARLINK-37215","OBJECT_ID":"2026-063N","EPOCH":"2026-04-18T06:00:02.999808","MEAN_MOTION":15.75394059,"ECCENTRICITY":0.00014034,"INCLINATION":97.2854,"RA_OF_ASC_NODE":250.0158,"ARG_OF_PERICENTER":82.5078,"MEAN_ANOMALY":190.0988,"EPHEMERIS_TYPE":0,"CLASSIFICATION_TYPE":"U","NORAD_CAT_ID":68392,"ELEMENT_SET_NO":999,"REV_AT_EPOCH":482,"BSTAR":-0.0023387124,"MEAN_MOTION_DOT":-0.00338508,"MEAN_MOTION_DDOT":0}]
